NORAD_CAT_ID,OBJECT_NAME,OBJECT_TYPE,EPOCH,MEAN_MOTION,ECCENTRICITY,INCLINATION,RA_OF_ASC_NODE,ARG_OF_PERICENTER,MEAN_ANOMALY,BSTAR,MEAN_MOTION_DOT,MEAN_MOTION_DDOT,TLE_LINE0,TLE_LINE1,TLE_LINE2,SEMIMAJOR_AXIS,PERIOD,APOGEE,PERIGEE,DECAYED
55670.0,STARLINK-5423,PAYLOAD,2023-08-02 14:00:01,15.55640339,0.0003371,69.9992,43.9487,268.6032,294.5307,-0.015454,-0.00962526,0.0,0 STARLINK-5423,1 55670U 23021AU  23214.58334491 -.00962526  00000-0 -15454-1 0  9992,2 55670  69.9992  43.9487 0003371 268.6032 294.5307 15.55640339 26565,6778.429,92.566,402.579,398.009,0.0
55670.0,STARLINK-5423,PAYLOAD,2023-08-03 06:00:00,15.54274824,0.000341,69.9988,42.1152,271.4385,62.4736,-0.014674,-0.00877127,0.0,0 STARLINK-5423,1 55670U 23021AU  23215.25001157 -.00877127  00000-0 -14674-1 0  9992,2 55670  69.9988  42.1152 0003410 271.4385  62.4736 15.54274824 26678,6782.398,92.648,406.576,401.951,0.0
55670.0,STARLINK-5423,PAYLOAD,2023-08-03 22:00:00,15.52983113,0.0003294,69.9994,40.2857,277.8188,183.7099,-0.015475,-0.00881928,0.0,0 STARLINK-5423,1 55670U 23021AU  23215.91667824 -.00881928  00000-0 -15475-1 0  9998,2 55670  69.9994  40.2857 0003294 277.8188 183.7099 15.52983113 26773,6786.159,92.725,410.259,405.788,0.0
55670.0,STARLINK-5423,PAYLOAD,2023-08-04 22:00:00,15.51147061,0.0003249,69.9997,37.5487,277.5413,9.5913,0.0012285,0.0007246,0.0,0 STARLINK-5423,1 55670U 23021AU  23216.91667824  .00072460  00000-0  12285-2 0  9997,2 55670  69.9997  37.5487 0003249 277.5413   9.5913 15.51147061 26922,6791.513,92.835,415.584,411.171,0.0
55670.0,STARLINK-5423,PAYLOAD,2023-08-05 14:00:01,15.51242479,0.000333,70.0007,35.7261,271.3961,137.4699,-9.0766e-05,-5.496e-05,0.0,0 STARLINK-5423,1 55670U 23021AU  23217.58334491 -.00005496  00000-0 -90766-4 0  9991,2 55670  70.0007  35.7261 0003330 271.3961 137.4699 15.51242479 27032,6791.234,92.829,415.361,410.838,0.0
55670.0,STARLINK-5423,PAYLOAD,2023-08-05 22:00:01,15.51249975,0.0003401,70.0006,34.8146,276.1687,193.7174,0.00037911,0.00022187,0.0,0 STARLINK-5423,1 55670U 23021AU  23217.91668981  .00022187  00000-0  37911-3 0  9998,2 55670  70.0006  34.8146 0003401 276.1687 193.7174 15.51249975 27086,6791.212,92.828,415.387,410.768,0.0
55670.0,STARLINK-5423,PAYLOAD,2023-08-06 06:00:00,15.51231089,0.0003435,70.0005,33.9032,270.3812,260.3954,4.1208e-06,7.7e-07,0.0,0 STARLINK-5423,1 55670U 23021AU  23218.25001157  .00000077  00000-0  41208-5 0  9992,2 55670  70.0005  33.9032 0003435 270.3812 260.3954 15.51231089 27132,6791.268,92.829,415.465,410.8,0.0
55670.0,STARLINK-5423,PAYLOAD,2023-08-07 14:00:01,15.51447508,0.000358,70.0008,30.2582,270.6083,143.7984,-0.016169,-0.00872744,0.0,0 STARLINK-5423,1 55670U 23021AU  23219.58334491 -.00872744  00000-0 -16169-1 0  9993,2 55670  70.0008  30.2582 0003580 270.6083 143.7984 15.51447508 27344,6790.636,92.817,414.932,410.07,0.0
55670.0,STARLINK-5423,PAYLOAD,2023-08-07 21:30:21,15.51067339,0.0003753,70.0001,29.404,268.7623,91.3133,-0.00099259,-0.00057728,0.0,0 STARLINK-5423,1 55670U 23021AU  23219.89608499 -.00057728  00000-0 -99259-3 0  9999,2 55670  70.0001  29.4040 0003753 268.7623  91.3133 15.51067339 27395,6791.746,92.839,416.159,411.062,0.0
55670.0,STARLINK-5423,PAYLOAD,2023-08-08 11:26:07,15.51097003,0.000548,70.0001,27.8172,251.0245,109.0347,-0.00046552,-0.00027304,0.0,0 STARLINK-5423,1 55670U 23021AU  23220.47647548 -.00027304  00000-0 -46552-3 0  9998,2 55670  70.0001  27.8172 0005480 251.0245 109.0347 15.51097003 27482,6791.659,92.838,417.246,409.802,0.0
55670.0,STARLINK-5423,PAYLOAD,2023-08-09 01:23:30,15.4979267,0.0004972,69.9997,26.2344,301.4632,58.6067,-0.0041998,-0.0022812,0.0,0 STARLINK-5423,1 55670U 23021AU  23221.05798871 -.00228120  00000-0 -41998-2 0  9996,2 55670  69.9997  26.2344 0004972 301.4632  58.6067 15.49792670 27579,6795.469,92.916,420.713,413.955,0.0
55670.0,STARLINK-5423,PAYLOAD,2023-08-09 14:00:01,15.47581151,0.0003674,70.0006,24.804,270.4983,137.0454,-0.020307,-0.00961747,0.0,0 STARLINK-5423,1 55670U 23021AU  23221.58334491 -.00961747  00000-0 -20307-1 0  9997,2 55670  70.0006  24.8040 0003674 270.4983 137.0454 15.47581151 27651,6801.941,93.048,426.305,421.307,0.0
55670.0,STARLINK-5423,PAYLOAD,2023-08-10 06:00:00,15.46214085,0.0003393,70.0002,22.9932,270.1321,248.8867,-0.018595,-0.00837899,0.0,0 STARLINK-5423,1 55670U 23021AU  23222.25001157 -.00837899  00000-0 -18595-1 0  9998,2 55670  70.0002  22.9932 0003393 270.1321 248.8867 15.46214085 27755,6805.95,93.131,430.124,425.506,0.0
55670.0,STARLINK-5423,PAYLOAD,2023-08-10 14:00:01,15.45618363,0.0003429,70.0003,22.0893,270.1379,303.424,-0.021557,-0.00954418,0.0,0 STARLINK-5423,1 55670U 23021AU  23222.58334491 -.00954418  00000-0 -21557-1 0  9993,2 55670  70.0003  22.0893 0003429 270.1379 303.4240 15.45618363 27801,6807.699,93.167,431.898,427.229,0.0
55670.0,STARLINK-5423,PAYLOAD,2023-08-11 06:00:00,15.44252783,0.0003461,70.0,20.2837,269.58,50.7627,-0.019673,-0.00829563,0.0,0 STARLINK-5423,1 55670U 23021AU  23223.25001157 -.00829563  00000-0 -19673-1 0  9996,2 55670  70.0000  20.2837 0003461 269.5800  50.7627 15.44252783 27915,6811.712,93.249,435.934,431.219,0.0
55670.0,STARLINK-5423,PAYLOAD,2023-08-11 14:00:01,15.43659591,0.0003503,70.0003,19.3824,271.2888,101.2503,-0.023004,-0.00952737,0.0,0 STARLINK-5423,1 55670U 23021AU  23223.58334491 -.00952737  00000-0 -23004-1 0  9995,2 55670  70.0003  19.3824 0003503 271.2888 101.2503 15.43659591 27963,6813.456,93.285,437.708,432.935,0.0
55670.0,STARLINK-5423,PAYLOAD,2023-08-12 06:00:00,15.42298686,0.0003289,69.9998,17.5819,268.7669,205.8554,-0.021086,-0.00831976,0.0,0 STARLINK-5423,1 55670U 23021AU  23224.25001157 -.00831976  00000-0 -21086-1 0  9999,2 55670  69.9998  17.5819 0003289 268.7669 205.8554 15.42298686 28068,6817.464,93.367,441.571,437.087,0.0
55670.0,STARLINK-5423,PAYLOAD,2023-08-12 14:00:01,15.41706889,0.0003253,70.0002,16.6831,272.2094,252.2583,-0.024347,-0.00944772,0.0,0 STARLINK-5423,1 55670U 23021AU  23224.58334491 -.00944772  00000-0 -24347-1 0  9997,2 55670  70.0002  16.6831 0003253 272.2094 252.2583 15.41706889 28116,6819.208,93.403,443.292,438.855,0.0
55670.0,STARLINK-5423,PAYLOAD,2023-08-13 14:00:01,15.39749232,0.0003487,70.0002,13.9921,270.8913,38.4717,-0.025988,-0.00944944,0.0,0 STARLINK-5423,1 55670U 23021AU  23225.58334491 -.00944944  00000-0 -25988-1 0  9991,2 55670  70.0002  13.9921 0003487 270.8913  38.4717 15.39749232 28275,6824.987,93.522,449.232,444.472,0.0
55670.0,STARLINK-5423,PAYLOAD,2023-08-14 14:00:01,15.37791386,0.000348,70.0002,11.3095,274.8377,172.3799,-0.027727,-0.00945387,0.0,0 STARLINK-5423,1 55670U 23021AU  23226.58334491 -.00945387  00000-0 -27727-1 0  9997,2 55670  70.0002  11.3095 0003480 274.8377 172.3799 15.37791386 28420,6830.779,93.641,455.021,450.267,0.0
55670.0,STARLINK-5423,PAYLOAD,2023-08-15 14:00:01,15.35830069,0.0003323,70.0006,8.6345,273.9677,304.0653,-0.029286,-0.00937707,0.0,0 STARLINK-5423,1 55670U 23021AU  23227.58334491 -.00937707  00000-0 -29286-1 0  9997,2 55670  70.0006   8.6345 0003323 273.9677 304.0653 15.35830069 28579,6836.593,93.76,460.73,456.186,0.0
55670.0,STARLINK-5423,PAYLOAD,2023-08-15 18:00:00,15.3547999,0.000344,70.0006,8.1894,279.0675,140.0915,-0.0283,-0.00899313,0.0,0 STARLINK-5423,1 55670U 23021AU  23227.75001157 -.00899313  00000-0 -28300-1 0  9992,2 55670  70.0006   8.1894 0003440 279.0675 140.0915 15.35479990 28603,6837.632,93.782,461.849,457.145,0.0
55670.0,STARLINK-5423,PAYLOAD,2023-08-16 22:00:00,15.33214261,0.000352,70.0006,5.08,278.9459,102.5539,-0.03137,-0.00925136,0.0,0 STARLINK-5423,1 55670U 23021AU  23228.91667824 -.00925136  00000-0 -31370-1 0  9994,2 55670  70.0006   5.0800 0003520 278.9459 102.5539 15.33214261 28783,6844.367,93.92,468.641,463.823,0.0
55670.0,STARLINK-5423,PAYLOAD,2023-08-18 06:00:02,15.30563024,0.0003202,70.0009,1.5399,272.2337,260.2892,-0.031288,-0.00854744,0.0,0 STARLINK-5423,1 55670U 23021AU  23230.25002315 -.00854744  00000-0 -31288-1 0  9996,2 55670  70.0009   1.5399 0003202 272.2337 260.2892 15.30563024 28986,6852.268,94.083,476.327,471.939,0.0
55670.0,STARLINK-5423,PAYLOAD,2023-08-18 22:00:00,15.29313911,0.0003299,70.0009,359.7751,277.1657,326.0599,-0.036399,-0.00960194,0.0,0 STARLINK-5423,1 55670U 23021AU  23230.91667824 -.00960194  00000-0 -36399-1 0  9996,2 55670  70.0009 359.7751 0003299 277.1657 326.0599 15.29313911 29084,6855.999,94.16,480.126,475.602,0.0
55670.0,STARLINK-5423,PAYLOAD,2023-08-19 14:00:01,15.2799434,0.0003367,70.0011,358.014,275.8196,35.1277,-0.036967,-0.00938123,0.0,0 STARLINK-5423,1 55670U 23021AU  23231.58335648 -.00938123  00000-0 -36967-1 0  9994,2 55670  70.0011 358.0140 0003367 275.8196  35.1277 15.27994340 29192,6859.946,94.241,484.12,479.501,0.0
55670.0,STARLINK-5423,PAYLOAD,2023-08-20 22:00:00,15.25402551,0.0003375,70.0006,354.5022,282.2266,154.5664,-0.041251,-0.00965412,0.0,0 STARLINK-5423,1 55670U 23021AU  23232.91667824 -.00965412  00000-0 -41251-1 0  9999,2 55670  70.0006 354.5022 0003375 282.2266 154.5664 15.25402551 29399,6867.714,94.401,491.897,487.261,0.0
55670.0,STARLINK-5423,PAYLOAD,2023-08-21 14:00:01,15.24072134,0.0003295,70.0007,352.7516,277.5172,217.5494,-0.041003,-0.00925095,0.0,0 STARLINK-5423,1 55670U 23021AU  23233.58334491 -.00925095  00000-0 -41003-1 0  9992,2 55670  70.0007 352.7516 0003295 277.5172 217.5494 15.24072134 29493,6871.71,94.484,495.839,491.311,0.0
55670.0,STARLINK-5423,PAYLOAD,2023-08-22 14:00:01,15.22111894,0.0003273,70.0006,350.1319,274.6534,301.9443,-0.043203,-0.00919942,0.0,0 STARLINK-5423,1 55670U 23021AU  23234.58334491 -.00919942  00000-0 -43203-1 0  9991,2 55670  70.0006 350.1319 0003273 274.6534 301.9443 15.22111894 29645,6877.609,94.605,501.725,497.223,0.0
55670.0,STARLINK-5423,PAYLOAD,2023-08-23 14:00:01,15.20154185,0.0003358,70.0005,347.5199,274.7307,16.3559,-0.04566,-0.00918059,0.0,0 STARLINK-5423,1 55670U 23021AU  23235.58334491 -.00918059  00000-0 -45660-1 0  9999,2 55670  70.0005 347.5199 0003358 274.7307  16.3559 15.20154185 29804,6883.512,94.727,507.689,503.066,0.0
